CYGFM04                 
1 41885U 16078B   22218.37987844  .00001309  00000+0  66074-4 0  9992
2 41885  34.9479 239.7909 0013727 197.9165 162.1064 15.17074026312572
CYGFM02                 
1 41886U 16078C   22218.43519826  .00001314  00000+0  66240-4 0  9992
2 41886  34.9572 241.6700 0014333 192.3680 167.6682 15.17112707312578
CYGFM01                 
1 41887U 16078D   22218.22203769  .00001244  00000+0  64156-4 0  9992
2 41887  34.9518 254.2939 0015472 178.2807 181.7960 15.16345394312410
CYGFM08                 
1 41888U 16078E   22217.79633336  .00001233  00000+0  62787-4 0  9997
2 41888  34.9487 249.3648 0014764 186.6378 173.4139 15.16815607312366
CYGFM06                 
1 41889U 16078F   22218.15179828  .00001184  00000+0  59858-4 0  9990
2 41889  34.9566 242.1090 0013278 190.0975 169.9471 15.17126837312537
CYGFM07                 
1 41890U 16078G   22218.20416806  .00001222  00000+0  61841-4 0  9996
2 41890  34.9504 240.6279 0013173 194.9735 165.0589 15.17059355312542
CYGFM03                 
1 41891U 16078H   22218.40046611  .00001304  00000+0  65907-4 0  9990
2 41891  34.9535 239.8917 0012700 194.7369 165.2974 15.17053616312568
FENGYUN 3D              
1 43010U 17072A   22218.47861153 -.00000008  00000+0  17397-4 0  9994
2 43010  98.8179 162.8359 0002825 103.2352 256.9139 14.19215883244860
NOAA 20                 
1 43013U 17073A   22218.54908410  .00000004  00000+0  22590-4 0  9990
2 43013  98.7172 156.3238 0000768  75.2448 284.8813 14.19564336244338
GOES 17                 
1 43226U 18022A   22217.29116267  .00000105  00000+0  00000+0 0  9992
2 43226   0.0898 264.3200 0000363 203.8624 173.1391  1.00271745 16265
FENGYUN 2H              
1 43491U 18050A   22218.10068122 -.00000124  00000+0  00000+0 0  9996
2 43491   1.2689  96.2327 0004454  40.7205 293.1955  1.00268975 15360
METOP-C                 
1 43689U 18087A   22218.48644995  .00000018  00000+0  28252-4 0  9999
2 43689  98.6807 277.6494 0001642 241.4195 118.6817 14.21499614194410
GEO-KOMPSAT-2A          
1 43823U 18100A   22216.87966109 -.00000337  00000+0  00000+0 0  9991
2 43823   0.0134  68.6688 0002048  39.5284 290.1295  1.00269027 13501
METEOR-M2 2             
1 44387U 19038A   22218.47134716 -.00000025  00000+0  83597-5 0  9999
2 44387  98.7263 178.8575 0002193 106.8837 253.2577 14.23715947160520
FENGYUN 3E              
1 49008U 21062A   22218.47983024 -.00000036  00000+0  38359-5 0  9996
2 49008  98.7118 219.6502 0001632 167.1826 192.9406 14.19735351 56411
GOES 18                 
1 51850U 22021A   22217.69889175  .00000103  00000+0  00000+0 0  9995
2 51850   0.0397  94.2511 0002551 111.3990 223.1936  1.00271523  1625
COSMOS 2557 [GLONASS-K] 
1 52984U 22075A   22218.03660468 -.00000047  00000+0  10000-3 0  9997
2 52984  64.8191   3.7885 0010433 280.8589  76.1763  2.13101837   625
FREGAT R/B              
1 52985U 22075B   22218.14487388 -.00000049  00000+0  00000+0 0  9995
2 52985  64.8354   3.8468 0078765 121.0875 239.7003  2.08817273   627
STARLINK-4260           
1 52986U 22076A   22218.58334491  .00026466  00000+0  19234-3 0  9994
2 52986  53.2173 230.9613 0002798  26.2992  82.4715 15.73205052  5229
STARLINK-4259           
1 52987U 22076B   22218.53963548 -.00251325  00000+0 -47334-2 0  9998
2 52987  53.2182 232.3336 0000838 119.8877 240.2215 15.48852404  5200
STARLINK-4291           
1 52988U 22076C   22218.50001157 -.00022534  00000+0 -15648-3 0  9997
2 52988  53.2175 231.3717 0002706  20.7324 337.0543 15.73205672  5215
STARLINK-4293           
1 52989U 22076D   22218.16670139 -.01115344  00000+0 -22404-1 0  9991
2 52989  53.2176 234.1154 0002051  25.6088  56.7736 15.49055337  5142
STARLINK-4286           
1 52990U 22076E   22218.53921269 -.00141141  00000+0 -25694-2 0  9995
2 52990  53.2190 232.3454 0002020  22.7362 337.3737 15.49376803  5202
STARLINK-4285           
1 52991U 22076F   22218.53886175 -.00143044  00000+0 -25958-2 0  9999
2 52991  53.2189 232.3562 0001751  44.9694 315.1458 15.49475557  5205
STARLINK-4269           
1 52992U 22076G   22218.47395799 -.00077086  00000+0 -13703-2 0  9997
2 52992  53.2193 232.6751 0001292  56.8320 303.2813 15.49746923  5191
STARLINK-4264           
1 52993U 22076H   22218.58334491 -.00120669  00000+0 -86620-3 0  9997
2 52993  53.2183 230.9564 0002604  16.6349  95.1799 15.73235748  5226
STARLINK-4256           
1 52994U 22076J   22218.58334491  .00010151  00000+0  76655-4 0  9998
2 52994  53.2189 230.9539 0002699  20.0553  92.2830 15.73201469  5222
STARLINK-4296           
1 52995U 22076K   22217.91667824  .00078790  00000+0  56127-3 0  9998
2 52995  53.2180 234.2505 0002214  29.8343 265.8427 15.73168641  1300
STARLINK-4295           
1 52996U 22076L   22218.50001157  .00071356  00000+0  50947-3 0  9991
2 52996  53.2191 231.3650 0002701  16.8125 343.9406 15.73153910  5219
STARLINK-4301           
1 52997U 22076M   22218.49937089 -.00001411  00000+0 -56245-5 0  9998
2 52997  53.2174 231.3602 0002372  34.6921 325.4254 15.73205475  5214
STARLINK-4254           
1 52998U 22076N   22218.24558296  .00000435  00000+0  75265-5 0  9997
2 52998  53.2191 232.6165 0001983  23.2319 336.8791 15.73203022  5177
STARLINK-4217           
1 52999U 22076P   22218.58334491 -.00121188  00000+0 -86850-3 0  9995
2 52999  53.2189 230.9449 0002754  15.3385 101.9415 15.73275126  5227
STARLINK-4194           
1 53000U 22076Q   22218.58334491 -.00017894  00000+0 -12332-3 0  9991
2 53000  53.2185 230.9469 0002782  18.2031  96.5536 15.73197654  5222
STARLINK-4190           
1 53001U 22076R   22218.58334491  .00029090  00000+0  21108-3 0  9992
2 53001  53.2187 230.9432 0002969  18.0875  99.6532 15.73184990  5225
STARLINK-4121           
1 53002U 22076S   22218.58334491 -.00070805  00000+0 -50353-3 0  9999
2 53002  53.2189 230.9480 0002579  21.0928  94.2405 15.73231516  5228
STARLINK-4255           
1 53003U 22076T   22218.50001157 -.00022505  00000+0 -15625-3 0  9999
2 53003  53.2189 231.3535 0003070  16.8431 349.8387 15.73206481  5213
STARLINK-4253           
1 53004U 22076U   22218.58334491 -.00070637  00000+0 -50223-3 0  9990
2 53004  53.2187 230.9447 0002820  20.0496  96.4778 15.73234126  5226
STARLINK-4288           
1 53005U 22076V   22218.24463870  .00008890  00000+0  67666-4 0  9998
2 53005  53.2189 232.6140 0002211  15.6823 344.4265 15.73209810  5179
STARLINK-4290           
1 53006U 22076W   22218.49895594  .00015905  00000+0  11736-3 0  9999
2 53006  53.2198 231.3595 0003118  19.2451 340.8686 15.73231837  5210
STARLINK-4215           
1 53007U 22076X   22218.25001157 -.00002866  00000+0 -15989-4 0  9997
2 53007  53.2176 232.5864 0002595  19.5189  12.8623 15.73200360  5177
STARLINK-4275           
1 53008U 22076Y   22218.16670139 -.00005499  00000+0 -34734-4 0  9994
2 53008  53.2193 232.9995 0002448  21.5594 257.4946 15.73222091  5165
STARLINK-4277           
1 53009U 22076Z   22218.24400781  .00002408  00000+0  21574-4 0  9991
2 53009  53.2188 232.6112 0002307  24.1483 335.9645 15.73205566  5175
STARLINK-4263           
1 53010U 22076AA  22218.58334491  .00010878  00000+0  81538-4 0  9990
2 53010  53.2185 230.9372 0002757  22.4954  97.8802 15.73284805  5224
STARLINK-4265           
1 53011U 22076AB  22218.58334491 -.00082639  00000+0 -58917-3 0  9991
2 53011  53.2188 230.9319 0002759  18.8793 104.7955 15.73233958  5221
STARLINK-4271           
1 53012U 22076AC  22218.58334491  .00027320  00000+0  19855-3 0  9994
2 53012  53.2185 230.9346 0002365  15.0080 106.8073 15.73185426  5220
STARLINK-4177           
1 53013U 22076AD  22218.58334491  .00025895  00000+0  18874-3 0  9990
2 53013  53.2182 230.9267 0002323  32.5440  92.8515 15.73150175  5226
STARLINK-4183           
1 53014U 22076AE  22218.58334491 -.00072070  00000+0 -51271-3 0  9998
2 53014  53.2172 230.9353 0002695  20.5702 101.9308 15.73229531  5227
STARLINK-4262           
1 53015U 22076AF  22218.24337885  .00016760  00000+0  12355-3 0  9994
2 53015  53.2181 232.6070 0004570   6.1815 353.9261 15.73201847  5173
STARLINK-4283           
1 53016U 22076AG  22218.50001157  .00021759  00000+0  15912-3 0  9990
2 53016  53.2183 231.3406 0002496  23.3007 348.7691 15.73188257  5217
STARLINK-4281           
1 53017U 22076AH  22218.50001157  .00073126  00000+0  52170-3 0  9993
2 53017  53.2184 231.3360 0002589  22.5524 352.4939 15.73162627  5216
STARLINK-4279           
1 53018U 22076AJ  22218.58334491  .00026546  00000+0  19258-3 0  9996
2 53018  53.2186 230.9292 0002272  24.5508 100.1409 15.73245664  5225
STARLINK-4282           
1 53019U 22076AK  22218.58334491 -.00072778  00000+0 -51796-3 0  9990
2 53019  53.2183 230.9212 0002930  18.8417 109.6112 15.73222596  5225
STARLINK-4287           
1 53020U 22076AL  22218.58334491 -.00015532  00000+0 -10645-3 0  9995
2 53020  53.2183 230.9253 0002211  19.6811 106.3906 15.73195312  5221
STARLINK-4203           
1 53021U 22076AM  22218.58334491 -.00077506  00000+0 -55147-3 0  9991
2 53021  53.2183 230.9187 0002887  14.4833 115.1029 15.73253957  5228
STARLINK-4216           
1 53022U 22076AN  22218.58334491  .00026111  00000+0  19008-3 0  9992
2 53022  53.2183 230.9218 0002765  20.3887 107.5045 15.73173205  5224
STARLINK-4284           
1 53023U 22076AP  22218.58334491 -.00050592  00000+0 -35809-3 0  9992
2 53023  53.2183 230.9169 0002594  22.2576 108.6265 15.73203116  5227
STARLINK-4289           
1 53024U 22076AQ  22218.50001157 -.00027257  00000+0 -19035-3 0  9990
2 53024  53.2183 231.3297 0002357  23.4381 354.5637 15.73203199  5214
STARLINK-4218           
1 53025U 22076AR  22218.58334491  .00025321  00000+0  18444-3 0  9990
2 53025  53.2180 230.9128 0002658  19.1472 112.8995 15.73179127  5223
STARLINK-4119           
1 53026U 22076AS  22218.58334491 -.00072899  00000+0 -51904-3 0  9993
2 53026  53.2181 230.9185 0002596  18.0123 111.0509 15.73215483  5228
